NOAA 15                 
1 25338U 98030A   22204.55170313  .00000153  00000+0  82017-4 0  9996
2 25338  98.6421 233.6119 0010260 185.9833 174.1226 14.26153673258167
NOAA 18                 
1 28654U 05018A   22204.46773233  .00000141  00000+0  10022-3 0  9997
2 28654  98.9477 274.8732 0013540 226.4678 133.5370 14.12756514885067
NOAA 19                 
1 33591U 09005A   22204.54396855  .00000148  00000+0  10469-3 0  9995
2 33591  99.1457 239.4350 0014950  87.4246 272.8636 14.12591272693280
METOP-B                 
1 38771U 12049A   22204.53911878  .00000060  00000+0  47171-4 0  9993
2 38771  98.6937 263.7543 0000760  58.6660  76.7941 14.21497473510860
SARAL                   
1 39086U 13009A   22204.51272108  .00000056  00000+0  37035-4 0  9997
2 39086  98.5480  29.6154 0001880 124.9080 235.2280 14.32053453491646
METOP-C                 
1 43689U 18087A   22204.47923037  .00000061  00000+0  47972-4 0  9998
2 43689  98.6819 263.8723 0001640 311.5033  48.6003 14.21497538192424
ANGELS                  
1 44876U 19092D   22204.45651109  .00002645  00000+0  13302-3 0  9999
2 44876  97.4752  27.3955 0010698 227.4396 132.5936 15.18078614143708
